{
  "type": "FeatureCollection",
  "features": [
    {
      "type": "Feature",
      "properties": {
        "norad_id": 67069,
        "name": "XIWANG-5 02",
        "group": "last-30-days",
        "lat": 11.33833899720329,
        "lon": -125.36679010240739,
        "alt_km": 514.6129514292006,
        "timestamp": "2025-12-18T15:47:09.962695+00:00",
        "meta_object_name": "XIWANG-5 02",
        "meta_object_id": "2025-296A",
        "meta_epoch": "2025-12-17T16:56:59.195616",
        "meta_mean_motion": 15.16768165,
        "meta_eccentricity": 0.00145859,
        "meta_inclination": 41.3523,
        "meta_ra_of_asc_node": 73.2396,
        "meta_arg_of_pericenter": 59.9158,
        "meta_mean_anomaly": 300.3108,
        "meta_ephemeris_type": 0,
        "meta_classification_type": "U",
        "meta_norad_cat_id": 67069,
        "meta_element_set_no": 999,
        "meta_rev_at_epoch": 71,
        "meta_bstar": 0.00053476127,
        "meta_mean_motion_dot": 0.00010539,
        "meta_mean_motion_ddot": 0,
        "tle_line1": "1 67069U 25296A   25351.70624069  .00010539  00000+0  53476-3 0  9997",
        "tle_line2": "2 67069  41.3523  73.2396 0014585  59.9158 300.3108 15.16768165   717"
      },
      "geometry": {
        "type": "Point",
        "coordinates": [
          -125.36679010240739,
          11.33833899720329
        ]
      }
    },
    {
      "type": "Feature",
      "properties": {
        "norad_id": 67070,
        "name": "DEAR-5",
        "group": "last-30-days",
        "lat": 8.805352157069185,
        "lon": -122.33775573959448,
        "alt_km": 515.3340223408941,
        "timestamp": "2025-12-18T15:47:09.962706+00:00",
        "meta_object_name": "DEAR-5",
        "meta_object_id": "2025-296B",
        "meta_epoch": "2025-12-18T02:24:55.721952",
        "meta_mean_motion": 15.16876304,
        "meta_eccentricity": 0.00162233,
        "meta_inclination": 41.3551,
        "meta_ra_of_asc_node": 70.9837,
        "meta_arg_of_pericenter": 63.894,
        "meta_mean_anomaly": 296.3549,
        "meta_ephemeris_type": 0,
        "meta_classification_type": "U",
        "meta_norad_cat_id": 67070,
        "meta_element_set_no": 999,
        "meta_rev_at_epoch": 76,
        "meta_bstar": 0.00027561524,
        "meta_mean_motion_dot": 5.347e-05,
        "meta_mean_motion_ddot": 0,
        "tle_line1": "1 67070U 25296B   25352.10064493  .00005347  00000+0  27562-3 0  9991",
        "tle_line2": "2 67070  41.3551  70.9837 0016223  63.8940 296.3549 15.16876304   761"
      },
      "geometry": {
        "type": "Point",
        "coordinates": [
          -122.33775573959448,
          8.805352157069185
        ]
      }
    },
    {
      "type": "Feature",
      "properties": {
        "norad_id": 67071,
        "name": "KZ-11 R/B",
        "group": "last-30-days",
        "lat": 27.599781927554638,
        "lon": -146.39686098943855,
        "alt_km": 951.1657880847861,
        "timestamp": "2025-12-18T15:47:09.962717+00:00",
        "meta_object_name": "KZ-11 R/B",
        "meta_object_id": "2025-296C",
        "meta_epoch": "2025-12-18T07:07:45.775776",
        "meta_mean_motion": 14.83254648,
        "meta_eccentricity": 0.06940751,
        "meta_inclination": 41.3333,
        "meta_ra_of_asc_node": 72.079,
        "meta_arg_of_pericenter": 352.8765,
        "meta_mean_anomaly": 6.2578,
        "meta_ephemeris_type": 0,
        "meta_classification_type": "U",
        "meta_norad_cat_id": 67071,
        "meta_element_set_no": 999,
        "meta_rev_at_epoch": 77,
        "meta_bstar": 0.00052718859,
        "meta_mean_motion_dot": 0.05649325,
        "meta_mean_motion_ddot": 5.952766e-06,
        "tle_line1": "1 67071U 25296C   25352.29705759  .05649325  59528-5  52719-3 0  9991",
        "tle_line2": "2 67071  41.3333  72.0790 0694075 352.8765   6.2578 14.83254648   779"
      },
      "geometry": {
        "type": "Point",
        "coordinates": [
          -146.39686098943855,
          27.599781927554638
        ]
      }
    },
    {
      "type": "Feature",
      "properties": {
        "norad_id": 67072,
        "name": "ELECTRON R/B",
        "group": "last-30-days",
        "lat": -41.013884422108866,
        "lon": 147.08619288973364,
        "alt_km": 360.1132355706977,
        "timestamp": "2025-12-18T15:47:09.962729+00:00",
        "meta_object_name": "ELECTRON R/B",
        "meta_object_id": "2025-297A",
        "meta_epoch": "2025-12-18T06:52:26.724288",
        "meta_mean_motion": 15.84290953,
        "meta_eccentricity": 0.02142477,
        "meta_inclination": 97.4756,
        "meta_ra_of_asc_node": 140.1222,
        "meta_arg_of_pericenter": 212.3335,
        "meta_mean_anomaly": 146.4657,
        "meta_ephemeris_type": 0,
        "meta_classification_type": "U",
        "meta_norad_cat_id": 67072,
        "meta_element_set_no": 999,
        "meta_rev_at_epoch": 66,
        "meta_bstar": 0.0014083341,
        "meta_mean_motion_dot": 0.02262304,
        "meta_mean_motion_ddot": 2.220172e-06,
        "tle_line1": "1 67072U 25297A   25352.28642042  .02262304  22202-5  14083-2 0  9992",
        "tle_line2": "2 67072  97.4756 140.1222 0214247 212.3335 146.4657 15.84290953   664"
      },
      "geometry": {
        "type": "Point",
        "coordinates": [
          147.08619288973364,
          -41.013884422108866
        ]
      }
    },
    {
      "type": "Feature",
      "properties": {
        "norad_id": 67073,
        "name": "RAISE-4",
        "group": "last-30-days",
        "lat": -82.50842372590319,
        "lon": -128.8907756022405,
        "alt_km": 545.2871805090972,
        "timestamp": "2025-12-18T15:47:09.962741+00:00",
        "meta_object_name": "RAISE-4",
        "meta_object_id": "2025-297B",
        "meta_epoch": "2025-12-18T06:37:28.117632",
        "meta_mean_motion": 15.07171328,
        "meta_eccentricity": 0.00114887,
        "meta_inclination": 97.4852,
        "meta_ra_of_asc_node": 139.6762,
        "meta_arg_of_pericenter": 300.7259,
        "meta_mean_anomaly": 59.2836,
        "meta_ephemeris_type": 0,
        "meta_classification_type": "U",
        "meta_norad_cat_id": 67073,
        "meta_element_set_no": 999,
        "meta_rev_at_epoch": 62,
        "meta_bstar": 0.00026693992,
        "meta_mean_motion_dot": 3.96e-05,
        "meta_mean_motion_ddot": 0,
        "tle_line1": "1 67073U 25297B   25352.27601988  .00003960  00000+0  26694-3 0  9993",
        "tle_line2": "2 67073  97.4852 139.6762 0011488 300.7259  59.2836 15.07171328   628"
      },
      "geometry": {
        "type": "Point",
        "coordinates": [
          -128.8907756022405,
          -82.50842372590319
        ]
      }
    },
    {
      "type": "Feature",
      "properties": {
        "norad_id": 67074,
        "name": "ELECTRON KICK STAGE R/B",
        "group": "last-30-days",
        "lat": -41.43465327351685,
        "lon": 147.05006377941623,
        "alt_km": 357.60046250998676,
        "timestamp": "2025-12-18T15:47:09.962751+00:00",
        "meta_object_name": "ELECTRON KICK STAGE R/B",
        "meta_object_id": "2025-297C",
        "meta_epoch": "2025-12-17T22:59:01.518144",
        "meta_mean_motion": 15.5544686,
        "meta_eccentricity": 0.02039141,
        "meta_inclination": 97.4819,
        "meta_ra_of_asc_node": 139.6549,
        "meta_arg_of_pericenter": 250.5377,
        "meta_mean_anomaly": 107.3746,
        "meta_ephemeris_type": 0,
        "meta_classification_type": "U",
        "meta_norad_cat_id": 67074,
        "meta_element_set_no": 999,
        "meta_rev_at_epoch": 59,
        "meta_bstar": 0.0014072523,
        "meta_mean_motion_dot": 0.00251676,
        "meta_mean_motion_ddot": 1.8562841e-05,
        "tle_line1": "1 67074U 25297C   25351.95765646  .00251676  18563-4  14073-2 0  9994",
        "tle_line2": "2 67074  97.4819 139.6549 0203914 250.5377 107.3746 15.55446860   595"
      },
      "geometry": {
        "type": "Point",
        "coordinates": [
          147.05006377941623,
          -41.43465327351685
        ]
      }
    },
    {
      "type": "Feature",
      "properties": {
        "norad_id": 67131,
        "name": "ZIYUAN 3-04 (ZY 3-04)",
        "group": "last-30-days",
        "lat": -82.13629569449812,
        "lon": 174.1894292212904,
        "alt_km": 491.69201583276936,
        "timestamp": "2025-12-18T15:47:09.962764+00:00",
        "meta_object_name": "ZIYUAN 3-04 (ZY 3-04)",
        "meta_object_id": "2025-300A",
        "meta_epoch": "2025-12-16T05:54:33.890112",
        "meta_mean_motion": 15.24627585,
        "meta_eccentricity": 0.0011082,
        "meta_inclination": 97.5012,
        "meta_ra_of_asc_node": 64.3338,
        "meta_arg_of_pericenter": 268.6179,
        "meta_mean_anomaly": 91.3789,
        "meta_ephemeris_type": 0,
        "meta_classification_type": "U",
        "meta_norad_cat_id": 67131,
        "meta_element_set_no": 999,
        "meta_rev_at_epoch": 2,
        "meta_bstar": 8.3268042e-05,
        "meta_mean_motion_dot": 1.984e-05,
        "meta_mean_motion_ddot": 0,
        "tle_line1": "1 67131U 25300A   25350.24622558  .00001984  00000+0  83268-4 0  9999",
        "tle_line2": "2 67131  97.5012  64.3338 0011082 268.6179  91.3789 15.24627585    26"
      },
      "geometry": {
        "type": "Point",
        "coordinates": [
          174.1894292212904,
          -82.13629569449812
        ]
      }
    }
  ]
}